# FY3D (LEO)
1 43010U 17072A   26198.73335352 -.00000406  00000+0 -17016-3 0  9991
2 43010  99.0147 173.7108 0001424   9.5878 350.5324 14.19743350449326

# FY3E (LEO)
1 49008U 21062A   26198.71385059 -.00000111  00000+0 -31482-4 0  9992
2 49008  98.7498 201.7825 0002134  34.5812 325.5503 14.19905782260913

# FY3F (LEO)
1 57490U 23111A   26198.69703037  .00000001  00000+0  20895-4 0  9992
2 57490  98.6824 268.1353 0001225  75.7822 284.3490 14.19943664153199

# FY3G (LEO)
1 56232U 23055A   26198.53495308  .00013140  00000+0  20691-3 0  9995
2 56232  49.9910 189.4963 0006968  67.0583 293.1119 15.53855978184724

# C2E1 (LEO)
1 44349U 19036L   26198.31726257  .00001296  00000+0  85096-4 0  9991
2 44349  23.9963 189.2464 0000863 150.1510 209.9040 14.96616469389176

# C2E2 (LEO)
1 44351U 19036N   26198.49556829  .00001347  00000+0  89426-4 0  9997
2 44351  23.9986 304.4702 0000613 149.3256 210.7280 14.96614279388138

# C2E3 (LEO)
1 44343U 19036E   26198.71459500  .00002420  00000+0  12441-3 0  9996
2 44343  23.9999 328.4011 0000242 329.4553  30.5937 15.10005458387867

# C2E4 (LEO)
1 44350U 19036M   26198.27318281  .00001266  00000+0  82482-4 0  9995
2 44350  23.9972 251.6550 0001132 164.6120 195.4415 14.96613977388585

# C2E5 (LEO)
1 44358U 19036V   26198.73931716  .00001396  00000+0  93688-4 0  9992
2 44358  23.9992  62.3868 0000307 152.5178 207.5339 14.96597681386936

# C2E6 (LEO)
1 44353U 19036Q   26198.16178340  .00001370  00000+0  91401-4 0  9993
2 44353  23.9969 127.5270 0001347  92.7890 267.2765 14.96616923386316

# G01 (GNSS)
1 62339U 24242A   26198.71237734 -.00000103  00000+0  00000+0 0  9990
2 62339  54.8348 332.9435 0017948   4.3011 326.3329  2.00572153 11863

# G02 (GNSS)
1 28474U 04045A   26198.67621534 -.00000098  00000+0  00000+0 0  9994
2 28474  55.1165 323.6683 0170225 317.1195  14.5735  2.00557200159039

# G03 (GNSS)
1 40294U 14068A   26197.83731626 -.00000078  00000+0  00000+0 0  9993
2 40294  57.0080  29.8134 0067420  72.3586 288.4183  2.00553316 85808

# G04 (GNSS)
1 43873U 18109A   26198.16911152 -.00000024  00000+0  00000+0 0  9991
2 43873  55.6999  91.0034 0038628 197.1090 334.9795  2.00562923 55673

# G05 (GNSS)
1 35752U 09043A   26198.55185044 -.00000086  00000+0  00000+0 0  9999
2 35752  56.2293  26.2602 0053700  84.4915 285.7485  2.00552633123972

# G06 (GNSS)
1 39741U 14026A   26198.37589147 -.00000099  00000+0  00000+0 0  9994
2 39741  56.4820 330.3426 0038152 325.7273  34.0273  2.00558742 89144

# G07 (GNSS)
1 32711U 08012A   26198.04938302  .00000023  00000+0  00000+0 0  9993
2 32711  54.5003 148.7318 0211694 248.1684 109.5345  2.00573180134350

# G08 (GNSS)
1 40730U 15033A   26198.63552646 -.00000028  00000+0  00000+0 0  9998
2 40730  53.9594 265.8297 0115391  30.2922 330.4457  2.00554676 80603

# G09 (GNSS)
1 40105U 14045A   26197.47040321 -.00000025  00000+0  00000+0 0  9996
2 40105  55.3721  87.2982 0034436 118.3856 242.0173  2.00560343 86661

# G10 (GNSS)
1 41019U 15062A   26198.69023135 -.00000082  00000+0  00000+0 0  9993
2 41019  56.9800  29.6369 0112950 230.8715 128.1552  2.00566982 78449

# G11 (GNSS)
1 48859U 21054A   26197.98812434 -.00000100  00000+0  00000+0 0  9990
2 48859  55.1585 331.2614 0026495 228.5534 178.0672  2.00566994 37350

# G12 (GNSS)
1 29601U 06052A   26198.33373431  .00000040  00000+0  00000+0 0  9996
2 29601  54.9321 212.8111 0084748  91.0048 269.9959  2.00559788144016

# G13 (GNSS)
1 24876U 97035A   26197.11934874 -.00000017  00000+0  00000+0 0  9990
2 24876  56.0094  97.4440 0103842  57.5444 303.4958  2.00563898212534

# G14 (GNSS)
1 46826U 20078A   26197.68794786  .00000040  00000+0  00000+0 0  9995
2 46826  53.9770 209.5818 0074586 207.8620 155.6551  2.00564972 42107

# G15 (GNSS)
1 32260U 07047A   26198.63952050 -.00000042  00000+0  00000+0 0  9992
2 32260  54.1176  78.8104 0167868  88.0458 273.9388  2.00553829137427

# G16 (GNSS)
1 27663U 03005A   26198.59217207  .00000039  00000+0  00000+0 0  9991
2 27663  54.8787 213.7607 0148330  53.1775   0.2276  2.00558921171927

# G17 (GNSS)
1 28874U 05038A   26198.27632049 -.00000033  00000+0  00000+0 0  9999
2 28874  54.8539 271.9617 0128247 296.4391  71.1880  2.00563576152441

# G18 (GNSS)
1 44506U 19056A   26198.54418769 -.00000100  00000+0  00000+0 0  9990
2 44506  55.6206 329.9359 0063535 198.1981 149.1155  2.00570120 50675

# G19 (GNSS)
1 28190U 04009A   26196.32288520 -.00000017  00000+0  00000+0 0  9994
2 28190  54.8064 274.5493 0117190 174.3464 193.0921  2.00553679163519

# G20 (GNSS)
1 26360U 00025A   26196.61429889 -.00000085  00000+0  00000+0 0  9997
2 26360  55.1603  18.1600 0021194 258.4845 287.4249  2.00562837191840

# G21 (GNSS)
1 64202U 25116A   26198.00257787 -.00000082  00000+0  00000+0 0  9990
2 64202  55.2550  29.9311 0008410 339.3397  21.8986  2.00573658  8472

# G22 (GNSS)
1 26407U 00040A   26198.74810211  .00000040  00000+0  00000+0 0  9995
2 26407  54.8482 213.9482 0120449 302.7742  87.0083  2.00557900190561

# G23 (GNSS)
1 45854U 20041A   26198.40284485 -.00000083  00000+0  00000+0 0  9994
2 45854  56.6898  27.7716 0065297 204.6840 337.6305  2.00557849 44648

# G24 (GNSS)
1 38833U 12053A   26197.73157771  .00000015  00000+0  00000+0 0  9993
2 38833  53.5898 142.3889 0182122  66.2502 295.6136  2.00567949100035

# G25 (GNSS)
1 36585U 10022A   26196.37400053  .00000049  00000+0  00000+0 0  9999
2 36585  54.2685 207.4265 0126723  66.1541 291.5416  2.00563746118156

# G26 (GNSS)
1 40534U 15013A   26198.47742927  .00000041  00000+0  00000+0 0  9997
2 40534  53.1659 202.9248 0110450  40.4076 320.4163  2.00549528 82437

# G27 (GNSS)
1 39166U 13023A   26198.09793634 -.00000025  00000+0  00000+0 0  9997
2 39166  54.4813 267.7538 0141386  51.1133 310.2153  2.00563335 96486

# G28 (GNSS)
1 55268U 23009A   26198.12434978  .00000024  00000+0  00000+0 0  9998
2 55268  55.1244 147.3421 0006238 322.1969 221.4770  2.00569455 25840

# G29 (GNSS)
1 32384U 07062A   26198.49979303 -.00000036  00000+0  00000+0 0  9993
2 32384  55.0077 272.9327 0036067 167.6696 219.4821  2.00561741136127

# G30 (GNSS)
1 39533U 14008A   26196.60401446  .00000011  00000+0  00000+0 0  9995
2 39533  53.6578 148.1607 0084090 231.5482 127.6544  2.00561576 90259

# G31 (GNSS)
1 29486U 06042A   26198.64108806  .00000029  00000+0  00000+0 0  9999
2 29486  54.7130 150.1299 0107253  55.2250 114.7718  2.00568097145001

# G32 (GNSS)
1 41328U 16007A   26198.28291175 -.00000028  00000+0  00000+0 0  9992
2 41328  55.5424  88.2660 0096630 247.5978 111.4306  2.00575319 76440

# C06 (GNSS)
1 36828U 10036A   26197.87751575 -.00000119  00000+0  00000+0 0  9997
2 36828  54.3069 162.6917 0058738 225.2841 329.6485  1.00263239 58391

# C04 (GNSS)
1 37210U 10057A   26198.58469399 -.00000124  00000+0  00000+0 0  9991
2 37210   3.7207  68.7554 0005611 185.3571  51.7000  1.00272533 57594

# C07 (GNSS)
1 37256U 10068A   26197.89053965 -.00000197  00000+0  00000+0 0  9994
2 37256  47.4927 271.4611 0056840 213.7793 238.3724  1.00272868 57099

# C14 (GNSS)
1 38775U 12050B   26196.82639704 -.00000044  00000+0  00000+0 0  9998
2 38775  56.5693  61.9476 0012890   1.6971 358.3817  1.86230913 93845

# C01 (GNSS)
1 44231U 19027A   26198.65294719 -.00000257  00000+0  00000+0 0  9995
2 44231   1.7336  74.5037 0009663 282.1860 318.3603  1.00270931 26389

# C24 (GNSS)
1 43582U 18062B   26196.96621981  .00000039  00000+0  00000+0 0  9995
2 43582  54.0864 181.3149 0005364  10.9821 348.9999  1.86227848 54171

# C26 (GNSS)
1 43602U 18067A   26195.83074670  .00000041  00000+0  00000+0 0  9998
2 43602  54.1815 180.1029 0007941  30.1280 329.8903  1.86227572 53638

# C25 (GNSS)
1 43603U 18067B   26195.96588683  .00000041  00000+0  00000+0 0  9997
2 43603  54.1789 180.0620 0004640  13.0811 346.9028  1.86227031 53669

# C32 (GNSS)
1 43622U 18072A   26194.84670723 -.00000039  00000+0  00000+0 0  9995
2 43622  56.6475  61.7808 0006235 333.7731  26.2691  1.86231187 53152

# C33 (GNSS)
1 43623U 18072B   26196.85995828 -.00000045  00000+0  00000+0 0  9992
2 43623  56.6514  61.7086 0005557  10.9419 349.1444  1.86231129 53180

# C35 (GNSS)
1 43647U 18078A   26197.01487644 -.00000071  00000+0  00000+0 0  9994
2 43647  54.0618 298.9748 0006597  39.6301 320.4557  1.86232227 52697

# C34 (GNSS)
1 43648U 18078B   26197.68109017 -.00000075  00000+0  00000+0 0  9997
2 43648  54.0570 298.9515 0003486  57.6881 302.3845  1.86232352 52726

# C59 (GNSS)
1 43683U 18085A   26198.58469399 -.00000120  00000+0  00000+0 0  9997
2 43683   2.9434  96.5465 0008018 356.8784 212.4352  1.00272429 28366

# C36 (GNSS)
1 43706U 18093A   26196.23416436  .00000040  00000+0  00000+0 0  9996
2 43706  54.1700 181.3447 0010121 294.3653  66.9155  1.86228289 52065

# C37 (GNSS)
1 43707U 18093B   26197.70663610  .00000042  00000+0  00000+0 0  9990
2 43707  54.1709 181.2870 0008157 323.7142  36.1996  1.86226527 52087

# C38 (GNSS)
1 44204U 19023A   26197.32034861 -.00000209  00000+0  00000+0 0  9991
2 44204  58.7368  37.3490 0025911 224.0979 267.2124  1.00282972  7507

# C39 (GNSS)
1 44337U 19035A   26198.29131494 -.00000132  00000+0  00000+0 0  9993
2 44337  55.2507 158.5979 0039300 216.4251 143.3539  1.00256869 25975

# C46 (GNSS)
1 44542U 19061A   26197.23792348  .00000040  00000+0  00000+0 0  9991
2 44542  54.3974 181.7481 0008646 359.7082   0.2616  1.86229127 46330

# C45 (GNSS)
1 44543U 19061B   26197.36472383  .00000041  00000+0  00000+0 0  9991
2 44543  54.3958 181.7121 0005956 340.9242  15.4707  1.86227496 46331

# C44 (GNSS)
1 44793U 19078A   26194.39343167 -.00000062  00000+0  00000+0 0  9997
2 44793  53.9106 298.9058 0005750  50.3045 309.7753  1.86227300 45134

# C43 (GNSS)
1 44794U 19078B   26198.82898553 -.00000083  00000+0  00000+0 0  9997
2 44794  53.8792 298.7098 0003527  49.8357 310.2350  1.86227742 45226

# C41 (GNSS)
1 44864U 19090A   26196.14526441 -.00000041  00000+0  00000+0 0  9990
2 44864  56.5835  61.8670 0016849 297.6358 260.7026  1.86231024 44756
